EUTELSAT 9B             
1 41310U 16005A   26095.83086177  .00000063  00000+0  00000+0 0  9990
2 41310   0.0563  58.7759 0003924 288.6865 154.7558  1.00271449 37392
EUTELSAT 65 WEST A      
1 41382U 16014A   26095.80336889 -.00000275  00000+0  00000+0 0  9990
2 41382   0.0628 327.4186 0002300  51.2878  39.4082  1.00271141 36791
EUTELSAT 117 WEST B     
1 41589U 16038B   26095.65046965 -.00000010  00000+0  00000+0 0  9998
2 41589   0.0146  59.4786 0000268 233.8299  17.8137  1.00270922 35931
EUTELSAT 172B           
1 42741U 17029B   26095.70777556 -.00000004  00000+0  00000+0 0  9996
2 42741   0.0172 170.2409 0000242 318.7424 131.8272  1.00272722 33014
EUTELSAT 7C             
1 44334U 19034B   26095.81766892  .00000050  00000+0  00000+0 0  9997
2 44334   0.0655 184.0113 0003442 179.1600 132.3034  1.00273072  6117
EUTELSAT 5 WEST B       
1 44624U 19067A   26095.81532892 -.00000040  00000+0  00000+0 0  9996
2 44624   0.0662  13.2924 0003469  12.4354  96.8962  1.00272960 23718
EUTELSAT KONNECT        
1 45027U 20005B   26095.60377369  .00000051  00000+0  00000+0 0  9992
2 45027   0.0703  93.9139 0001233 222.1068 102.4577  1.00273016 23601
EUTELSAT QUANTUM        
1 49056U 21069B   26095.82572897  .00000128  00000+0  00000+0 0  9991
2 49056   0.0047 226.8888 0002275 146.4447 165.7376  1.00270902 17201
EUTELSAT KONNECT VHTS   
1 53765U 22110A   26095.81680227  .00000019  00000+0  00000+0 0  9996
2 53765   0.0619  99.5416 0002859 254.4392 136.8824  1.00270888  6115
EUTELSAT HOTBIRD 13F    
1 54048U 22134A   26095.81888227  .00000089  00000+0  00000+0 0  9994
2 54048   0.0553 284.7113 0002181  80.6299 136.5788  1.00272467 12659
EUTELSAT HOTBIRD 13G    
1 54225U 22146A   26095.81888227  .00000089  00000+0  00000+0 0  9994
2 54225   0.0445 233.9468 0001831 301.3759 326.5999  1.00272645  6746
EUTELSAT 10B            
1 54259U 22157A   26095.81827560  .00000070  00000+0  00000+0 0  9996
2 54259   0.0616  95.3872 0002081  14.6166  28.6463  1.00269640 12302
EUTELSAT 36D            
1 59346U 24059A   26095.68080311  .00000157  00000+0  00000+0 0  9997
2 59346   0.0177 166.8107 0000731 281.5051  26.6200  1.00272305  7425
