[{"OBJECT_NAME":"EUTELSAT 9B","OBJECT_ID":"2016-005A","EPOCH":"2026-04-05T19:56:26.456928","MEAN_MOTION":1.00271449,"ECCENTRICITY":0.0003924,"INCLINATION":0.0563,"RA_OF_ASC_NODE":58.7759,"ARG_OF_PERICENTER":288.6865,"MEAN_ANOMALY":154.7558,"EPHEMERIS_TYPE":0,"CLASSIFICATION_TYPE":"U","NORAD_CAT_ID":41310,"ELEMENT_SET_NO":999,"REV_AT_EPOCH":3739,"BSTAR":0,"MEAN_MOTION_DOT":6.3e-7,"MEAN_MOTION_DDOT":0},{"OBJECT_NAME":"EUTELSAT 65 WEST A","OBJECT_ID":"2016-014A","EPOCH":"2026-04-05T19:16:51.072096","MEAN_MOTION":1.00271141,"ECCENTRICITY":0.00023,"INCLINATION":0.0628,"RA_OF_ASC_NODE":327.4186,"ARG_OF_PERICENTER":51.2878,"MEAN_ANOMALY":39.4082,"EPHEMERIS_TYPE":0,"CLASSIFICATION_TYPE":"U","NORAD_CAT_ID":41382,"ELEMENT_SET_NO":999,"REV_AT_EPOCH":3679,"BSTAR":0,"MEAN_MOTION_DOT":-2.75e-6,"MEAN_MOTION_DDOT":0},{"OBJECT_NAME":"EUTELSAT 117 WEST B","OBJECT_ID":"2016-038B","EPOCH":"2026-04-05T15:36:40.577760","MEAN_MOTION":1.00270922,"ECCENTRICITY":2.68e-5,"INCLINATION":0.0146,"RA_OF_ASC_NODE":59.4786,"ARG_OF_PERICENTER":233.8299,"MEAN_ANOMALY":17.8137,"EPHEMERIS_TYPE":0,"CLASSIFICATION_TYPE":"U","NORAD_CAT_ID":41589,"ELEMENT_SET_NO":999,"REV_AT_EPOCH":3593,"BSTAR":0,"MEAN_MOTION_DOT":-1.0e-7,"MEAN_MOTION_DDOT":0},{"OBJECT_NAME":"EUTELSAT 172B","OBJECT_ID":"2017-029B","EPOCH":"2026-04-05T16:59:11.808384","MEAN_MOTION":1.00272722,"ECCENTRICITY":2.42e-5,"INCLINATION":0.0172,"RA_OF_ASC_NODE":170.2409,"ARG_OF_PERICENTER":318.7424,"MEAN_ANOMALY":131.8272,"EPHEMERIS_TYPE":0,"CLASSIFICATION_TYPE":"U","NORAD_CAT_ID":42741,"ELEMENT_SET_NO":999,"REV_AT_EPOCH":3301,"BSTAR":0,"MEAN_MOTION_DOT":-4.0e-8,"MEAN_MOTION_DDOT":0},{"OBJECT_NAME":"EUTELSAT 7C","OBJECT_ID":"2019-034B","EPOCH":"2026-04-05T19:37:26.594688","MEAN_MOTION":1.00273072,"ECCENTRICITY":0.0003442,"INCLINATION":0.0655,"RA_OF_ASC_NODE":184.0113,"ARG_OF_PERICENTER":179.16,"MEAN_ANOMALY":132.3034,"EPHEMERIS_TYPE":0,"CLASSIFICATION_TYPE":"U","NORAD_CAT_ID":44334,"ELEMENT_SET_NO":999,"REV_AT_EPOCH":611,"BSTAR":0,"MEAN_MOTION_DOT":5.0e-7,"MEAN_MOTION_DDOT":0},{"OBJECT_NAME":"EUTELSAT 5 WEST B","OBJECT_ID":"2019-067A","EPOCH":"2026-04-05T19:34:04.418688","MEAN_MOTION":1.0027296,"ECCENTRICITY":0.0003469,"INCLINATION":0.0662,"RA_OF_ASC_NODE":13.2924,"ARG_OF_PERICENTER":12.4354,"MEAN_ANOMALY":96.8962,"EPHEMERIS_TYPE":0,"CLASSIFICATION_TYPE":"U","NORAD_CAT_ID":44624,"ELEMENT_SET_NO":999,"REV_AT_EPOCH":2371,"BSTAR":0,"MEAN_MOTION_DOT":-4.0e-7,"MEAN_MOTION_DDOT":0},{"OBJECT_NAME":"EUTELSAT KONNECT","OBJECT_ID":"2020-005B","EPOCH":"2026-04-05T14:29:26.046816","MEAN_MOTION":1.00273016,"ECCENTRICITY":0.0001233,"INCLINATION":0.0703,"RA_OF_ASC_NODE":93.9139,"ARG_OF_PERICENTER":222.1068,"MEAN_ANOMALY":102.4577,"EPHEMERIS_TYPE":0,"CLASSIFICATION_TYPE":"U","NORAD_CAT_ID":45027,"ELEMENT_SET_NO":999,"REV_AT_EPOCH":2360,"BSTAR":0,"MEAN_MOTION_DOT":5.1e-7,"MEAN_MOTION_DDOT":0},{"OBJECT_NAME":"EUTELSAT QUANTUM","OBJECT_ID":"2021-069B","EPOCH":"2026-04-05T19:49:02.983008","MEAN_MOTION":1.00270902,"ECCENTRICITY":0.0002275,"INCLINATION":0.0047,"RA_OF_ASC_NODE":226.8888,"ARG_OF_PERICENTER":146.4447,"MEAN_ANOMALY":165.7376,"EPHEMERIS_TYPE":0,"CLASSIFICATION_TYPE":"U","NORAD_CAT_ID":49056,"ELEMENT_SET_NO":999,"REV_AT_EPOCH":1720,"BSTAR":0,"MEAN_MOTION_DOT":1.28e-6,"MEAN_MOTION_DDOT":0},{"OBJECT_NAME":"EUTELSAT KONNECT VHTS","OBJECT_ID":"2022-110A","EPOCH":"2026-04-05T19:36:11.716128","MEAN_MOTION":1.00270888,"ECCENTRICITY":0.0002859,"INCLINATION":0.0619,"RA_OF_ASC_NODE":99.5416,"ARG_OF_PERICENTER":254.4392,"MEAN_ANOMALY":136.8824,"EPHEMERIS_TYPE":0,"CLASSIFICATION_TYPE":"U","NORAD_CAT_ID":53765,"ELEMENT_SET_NO":999,"REV_AT_EPOCH":611,"BSTAR":0,"MEAN_MOTION_DOT":1.9e-7,"MEAN_MOTION_DDOT":0},{"OBJECT_NAME":"EUTELSAT HOTBIRD 13F","OBJECT_ID":"2022-134A","EPOCH":"2026-04-05T19:39:11.428128","MEAN_MOTION":1.00272467,"ECCENTRICITY":0.0002181,"INCLINATION":0.0553,"RA_OF_ASC_NODE":284.7113,"ARG_OF_PERICENTER":80.6299,"MEAN_ANOMALY":136.5788,"EPHEMERIS_TYPE":0,"CLASSIFICATION_TYPE":"U","NORAD_CAT_ID":54048,"ELEMENT_SET_NO":999,"REV_AT_EPOCH":1265,"BSTAR":0,"MEAN_MOTION_DOT":8.9e-7,"MEAN_MOTION_DDOT":0},{"OBJECT_NAME":"EUTELSAT HOTBIRD 13G","OBJECT_ID":"2022-146A","EPOCH":"2026-04-05T19:39:11.428128","MEAN_MOTION":1.00272645,"ECCENTRICITY":0.0001831,"INCLINATION":0.0445,"RA_OF_ASC_NODE":233.9468,"ARG_OF_PERICENTER":301.3759,"MEAN_ANOMALY":326.5999,"EPHEMERIS_TYPE":0,"CLASSIFICATION_TYPE":"U","NORAD_CAT_ID":54225,"ELEMENT_SET_NO":999,"REV_AT_EPOCH":674,"BSTAR":0,"MEAN_MOTION_DOT":8.9e-7,"MEAN_MOTION_DDOT":0},{"OBJECT_NAME":"EUTELSAT 10B","OBJECT_ID":"2022-157A","EPOCH":"2026-04-05T19:38:19.011840","MEAN_MOTION":1.0026964,"ECCENTRICITY":0.0002081,"INCLINATION":0.0616,"RA_OF_ASC_NODE":95.3872,"ARG_OF_PERICENTER":14.6166,"MEAN_ANOMALY":28.6463,"EPHEMERIS_TYPE":0,"CLASSIFICATION_TYPE":"U","NORAD_CAT_ID":54259,"ELEMENT_SET_NO":999,"REV_AT_EPOCH":1230,"BSTAR":0,"MEAN_MOTION_DOT":7.0e-7,"MEAN_MOTION_DDOT":0},{"OBJECT_NAME":"EUTELSAT 36D","OBJECT_ID":"2024-059A","EPOCH":"2026-04-05T16:20:21.388704","MEAN_MOTION":1.00272305,"ECCENTRICITY":7.31e-5,"INCLINATION":0.0177,"RA_OF_ASC_NODE":166.8107,"ARG_OF_PERICENTER":281.5051,"MEAN_ANOMALY":26.62,"EPHEMERIS_TYPE":0,"CLASSIFICATION_TYPE":"U","NORAD_CAT_ID":59346,"ELEMENT_SET_NO":999,"REV_AT_EPOCH":742,"BSTAR":0,"MEAN_MOTION_DOT":1.57e-6,"MEAN_MOTION_DDOT":0}]
